GALAXY 25 (G-25)    [PM]
1 24812C 97026A   22300.67663194  .00000087  00000-0  00000-0 0  3001
2 24812   4.0179  82.2738 0005081 168.7028  94.7737  1.00270764    11
GALAXY 25 (G-25)        
1 24812C 97026A   22304.00000000  .00000087  00000-0  00000-0 0  3047
2 24812   4.0272  82.3062 0004552 160.4097 222.7058  1.00272168    12
GALAXY 25 (G-25)        
1 24812C 97026A   22307.00000000  .00000087  00000-0  00000-0 0  3073
2 24812   4.0321  82.2727 0004989 164.5340 221.5684  1.00272787    13
INTELSAT 5 (IS-5)   [PM]
1 24916C 97046A   22301.00000000  .00000035  00000-0  00000-0 0  3011
2 24916   7.5120  60.1090 0004135 182.3470 320.0439  1.00270247    18
INTELSAT 5 (IS-5)       
1 24916C 97046A   22304.00000000  .00000035  00000-0  00000-0 0  3047
2 24916   7.5165  60.1134 0004497 184.8747 320.4756  1.00269985    14
INTELSAT 5 (IS-5)       
1 24916C 97046A   22307.00000000  .00000035  00000-0  00000-0 0  3073
2 24916   7.5212  60.0815 0005108 188.3522 319.9932  1.00270711    10
GALAXY 11 (G-11)        
1 26038C 99071A   22304.00000000 -.00000073  00000-0  00000-0 0  3047
2 26038   3.3596  85.8794 0002014 213.6360   6.6936  1.00270720    16
GALAXY 11 (G-11)        
1 26038C 99071A   22307.00000000 -.00000072  00000-0  00000-0 0  3072
2 26038   3.3651  85.8386 0002227 208.4878  14.8284  1.00270182    16
INTELSAT 9 (IS-9)   [PM]
1 26451C 00043A   22297.81041667 -.00000191  00000-0  00000-0 0  2973
2 26451   7.4861  60.2592 0004158 191.6573  23.0339  1.00276504    16
INTELSAT 9 (IS-9)       
1 26451C 00043A   22304.00000000 -.00000191  00000-0  00000-0 0  3048
2 26451   7.5008  60.2964 0006082 164.7614 124.2737  1.00265852    18
INTELSAT 9 (IS-9)       
1 26451C 00043A   22307.00000000 -.00000191  00000-0  00000-0 0  3074
2 26451   7.5053  60.2651 0006439 164.4749 127.5354  1.00268772    18
INTELSAT 1R (IS-1R)     
1 26608C 00072A   22304.00000000 -.00000046  00000-0  00000-0 0  3043
2 26608   4.7595  79.5075 0001135 325.4714 151.4402  1.00267248    11
INTELSAT 1R (IS-1R)     
1 26608C 00072A   22307.00000000 -.00000047  00000-0  00000-0 0  3070
2 26608   4.7624  79.4756 0000882 315.1736 164.7120  1.00267287    14
INTELSAT 10 (IS-10) [PM]
1 26766C 01019A   22299.77873843  .00000127  00000-0  00000-0 0  2992
2 26766   5.8883  72.1745 0002749 128.3763 292.7619  1.00270771    11
INTELSAT 10 (IS-10)     
1 26766C 01019A   22304.00000000  .00000127  00000-0  00000-0 0  3049
2 26766   5.8987  72.1971 0002606 167.0781 337.8331  1.00268306    12
INTELSAT 10 (IS-10)     
1 26766C 01019A   22307.00000000  .00000127  00000-0  00000-0 0  3075
2 26766   5.9034  72.1643 0003095 173.1019 334.7844  1.00269375    19
INTELSAT 901            
1 26824C 01024A   22304.00000000 -.00000110  00000-0  00000-0 0  3043
2 26824   0.0497  83.8777 0000466 117.0364 170.9063  1.00269512    15
INTELSAT 901            
1 26824C 01024A   22307.00000000 -.00000113  00000-0  00000-0 0  3072
2 26824   0.0440  75.7203 0000939 137.8504 161.2052  1.00269705    13
INTELSAT 902            
1 26900C 01039A   22304.00000000 -.00000192  00000-0  00000-0 0  3044
2 26900   2.7456  87.4974 0003299 147.7282 113.9831  1.00269957    12
INTELSAT 902            
1 26900C 01039A   22307.00000000 -.00000192  00000-0  00000-0 0  3070
2 26900   2.7502  87.4743 0003653 149.2425 115.4483  1.00271287    17
INTELSAT 902        [PM]
1 26900C 01039A   22312.32069444 -.00000192  00000-0  00000-0 0  3124
2 26900   2.7339 201.4313 0003821 157.2976 114.1382  1.00272126    10
INTELSAT 904            
1 27380C 02007A   22304.00000000 -.00000123  00000-0  00000-0 0  3047
2 27380   3.5754  84.4945 0003233 136.7628 148.5624  1.00270887    18
INTELSAT 904            
1 27380C 02007A   22307.00000000 -.00000123  00000-0  00000-0 0  3073
2 27380   3.5804  84.4648 0003592 143.0872 145.2204  1.00269968    10
INTELSAT 904        [PM]
1 27380C 02007A   22309.80859954 -.00000123  00000-0  00000-0 0  3095
2 27380   3.5876  84.3776 0003254 154.2486  67.9917  1.00273008    11
INTELSAT 905            
1 27438C 02027A   22304.00000000 -.00000094  00000-0  00000-0 0  3040
2 27438   3.3979  85.2250 0002888 126.1398 163.4451  1.00271188    18
INTELSAT 905        [PM]
1 27438C 02027A   22304.67468750 -.00000094  00000-0  00000-0 0  3043
2 27438   3.3991  85.2170 0002071 127.4204  45.7196  1.00271515    19
INTELSAT 905            
1 27438C 02027A   22307.00000000 -.00000094  00000-0  00000-0 0  3076
2 27438   3.4028  85.1960 0003181 133.6618 158.9097  1.00270489    14
GALAXY 3C (G-3C)        
1 27445C 02030A   22304.00000000 -.00000062  00000-0  00000-0 0  3047
2 27445   0.3233  90.6753 0000484 231.8415 341.9233  1.00270898    16
GALAXY 3C (G-3C)        
1 27445C 02030A   22307.00000000 -.00000062  00000-0  00000-0 0  3073
2 27445   0.3286  90.9459 0000537 206.4783   9.9760  1.00271393    12
INTELSAT 906        [PM]
1 27513C 02041A   22299.71991898  .00000105  00000-0  00000-0 0  2990
2 27513   2.4010  88.8452 0003365 131.6540 137.9216  1.00270337    12
INTELSAT 906            
1 27513C 02041A   22304.00000000  .00000105  00000-0  00000-0 0  3042
2 27513   2.4150  88.9268 0003406 129.3036 245.2167  1.00270934    14
INTELSAT 906            
1 27513C 02041A   22307.00000000  .00000105  00000-0  00000-0 0  3078
2 27513   2.4199  88.8980 0003683 135.8985 241.6001  1.00271612    10
GALAXY 12 (G-12)        
1 27715C 03013B   22304.00000000  .00000148  00000-0  00000-0 0  3043
2 27715   3.6082  84.1415 0001527 158.3217  27.8500  1.00270265    14
GALAXY 12 (G-12)        
1 27715C 03013B   22307.00000000  .00000149  00000-0  00000-0 0  3070
2 27715   3.6133  84.1089 0001886 166.9492  22.1891  1.00269787    14
GALAXY 12 (G-12)    [PM]
1 27715C 03013B   22319.55831019  .00000148  00000-0  00000-0 0  3197
2 27715   3.6161 284.4290 0001890 164.0227  38.2095  1.00270307    18
GALAXY 23 (G-23)        
1 27854C 03034A   22304.00000000  .00000105  00000-0  00000-0 0  3043
2 27854   0.0101 235.2503 0003042 346.7251  56.3373  1.00270622    15
GALAXY 23 (G-23)        
1 27854C 03034A   22307.00000000  .00000106  00000-0  00000-0 0  3070
2 27854   0.0082 219.3050 0003299   8.4937  53.4667  1.00270569    14
GALAXY 23 (G-23)    [PM]
1 27854C 03034A   22307.87621528  .00000061  00000-0  00000-0 0  3079
2 27854   0.0097 232.1956 0003395 358.8593   6.5107  1.00270504    12
GALAXY 23 (G-23)    [PM]
1 27854C 03034A   22312.04440972  .00000119  00000-0  00000-0 0  3126
2 27854   0.0396  86.0366 0003341 161.0808  55.1006  1.00272429    15
GALAXY 13               
1 27954C 03044A   22304.00000000  .00000139  00000-0  00000-0 0  3042
2 27954   0.0385  82.3226 0002353  91.2035  98.7604  1.00268081    12
GALAXY 13               
1 27954C 03044A   22307.00000000  .00000139  00000-0  00000-0 0  3078
2 27954   0.0401  74.9508 0001157 104.6220  95.6582  1.00268837    17
INTELSAT 10-02          
1 28358C 04022A   22304.00000000  .00000066  00000-0  00000-0 0  3047
2 28358   0.0023 327.1120 0000732 246.8904 184.3205  1.00270440    16
INTELSAT 10-02          
1 28358C 04022A   22307.00000000  .00000051  00000-0  00000-0 0  3077
2 28358   0.0276  72.0483 0000867 154.5688 174.6577  1.00269895    13
GALAXY 28 (G-28)        
1 28702C 05022A   22304.00000000 -.00000096  00000-0  00000-0 0  3045
2 28702   0.0235  29.4859 0002055 223.3198  57.5185  1.00269945    16
GALAXY 28 (G-28)        
1 28702C 05022A   22307.00000000 -.00000096  00000-0  00000-0 0  3071
2 28702   0.0121 302.3696 0001943 305.8875  65.0036  1.00271803    10
GALAXY 28 (G-28)    [PM]
1 28702C 05022A   22307.00886574 -.00000096  00000-0  00000-0 0  3079
2 28702   0.0121 302.3324 0001946 305.7752  68.3535  1.00271799    18
GALAXY 14 (G-14)        
1 28790C 05030A   22304.00000000  .00000246  00000-0  00000-0 0  3047
2 28790   1.6040  90.7451 0002049 117.2570 224.2254  1.00272811    17
GALAXY 14 (G-14)    [PM]
1 28790C 05030A   22305.52430556  .00000246  00000-0  00000-0 0  3059
2 28790   1.6065  90.7621 0001787 116.2732  55.4317  1.00268836    16
GALAXY 14 (G-14)        
1 28790C 05030A   22307.00000000  .00000246  00000-0  00000-0 0  3073
2 28790   1.6088  90.7391 0002150 120.5051 223.9174  1.00270117    10
GALAXY 15 (G-15)        
1 28884C 05041A   22304.00000000  .00000149  00000-0  00000-0 0  3045
2 28884   0.1578  91.2330 0003234 149.1492  29.9020  1.00297345    17
GALAXY 15 (G-15)        
1 28884C 05041A   22307.00000000  .00000147  00000-0  00000-0 0  3079
2 28884   0.1628  91.4907 0003545 151.7686  30.2692  1.00298123    19
GALAXY 16 (G-16)        
1 29236C 06023A   22304.00000000 -.00000037  00000-0  00000-0 0  3045
2 29236   0.0066 235.8780 0002521 331.6287  92.8159  1.00270819    12
GALAXY 16 (G-16)        
1 29236C 06023A   22307.00000000 -.00000037  00000-0  00000-0 0  3071
2 29236   0.0217 254.9290 0002660 319.6488  88.6786  1.00268640    19
GALAXY 16 (G-16)    [PM]
1 29236C 06023A   22307.03896991 -.00000037  00000-0  00000-0 0  3076
2 29236   0.0216 254.8941 0002712 316.7029 105.7267  1.00271124    13
GALAXY 16 (G-16)    [PM]
1 29236C 06023A   22308.41528935 -.00000037  00000-0  00000-0 0  3080
2 29236   0.0187 255.3127 0002795 323.4947 235.3472  1.00271705    10
GALAXY 17 (G-17)        
1 31307C 07016B   22304.00000000 -.00000087  00000-0  00000-0 0  3045
2 31307   0.0140 334.9469 0002986 258.1724  75.2018  1.00270519    12
GALAXY 17 (G-17)    [PM]
1 31307C 07016B   22306.96637732 -.00000109  00000-0  00000-0 0  3067
2 31307   0.0191 120.6923 0002591  78.5285  99.9250  1.00270682    13
GALAXY 17 (G-17)        
1 31307C 07016B   22307.00000000 -.00000105  00000-0  00000-0 0  3072
2 31307   0.0150 132.5247 0002965  91.6674  87.0756  1.00281246    19
INTELSAT 11 (IS-11)     
1 32253C 07044B   22304.00000000 -.00000178  00000-0  00000-0 0  3048
2 32253   0.1311  93.0111 0001797 138.0585 125.2437  1.00270446    11
